OBJECT_NAME,OBJECT_ID,EPOCH,MEAN_MOTION,ECCENTRICITY,INCLINATION,RA_OF_ASC_NODE,ARG_OF_PERICENTER,MEAN_ANOMALY,EPHEMERIS_TYPE,CLASSIFICATION_TYPE,NORAD_CAT_ID,ELEMENT_SET_NO,REV_AT_EPOCH,BSTAR,MEAN_MOTION_DOT,MEAN_MOTION_DDOT
STARLINK-30191,2023-102K,2026-06-08T08:29:56.020704,15.27558586,.0001163,43.0008,34.6255,274.0617,86.0101,0,U,57413,999,16083,.17367E-3,.4517E-4,0
STARLINK-30193,2023-102L,2026-06-08T20:00:03.000384,15.41897654,.0002329,43.0013,93.1875,261.0090,198.7873,0,U,57414,999,590,.32858E-2,.145284E-2,0
STARLINK-30208,2023-102M,2026-06-08T12:44:42.300960,15.27576183,.0000876,43.0049,95.4948,274.2653,85.8099,0,U,57415,999,16008,.31467E-4,.604E-5,0
STARLINK-30224,2023-102N,2026-06-08T12:55:48.711072,15.27572254,.0000713,43.0031,95.5463,243.4585,116.6193,0,U,57416,999,16013,.12566E-5,-.227E-5,0
STARLINK-30043,2023-102P,2026-06-08T12:57:39.334176,15.27574106,.0001846,43.0072,95.5571,279.8916,80.1727,0,U,57417,999,16013,-.14159E-6,-.266E-5,0
STARLINK-30188,2023-105C,2026-06-08T03:32:01.711392,15.27577515,.00015604,43.0020,112.6249,268.4864,91.5809,0,U,57432,999,15934,.42765683E-4,.915E-5,0
STARLINK-30105,2023-105D,2026-06-07T12:26:42.430560,15.27575845,.00015398,43.0015,243.5290,280.5950,79.4728,0,U,57433,999,16206,.9946001E-5,.11E-6,0
STARLINK-30102,2023-105E,2026-06-07T03:41:52.015200,15.27578545,.0001445,43.0038,114.6560,269.6562,90.4124,0,U,57434,999,15921,.14639E-4,.141E-5,0
STARLINK-30158,2023-105J,2026-06-08T03:17:56.055840,15.27572362,.00013606,43.0018,109.1349,257.5713,102.4987,0,U,57438,999,15941,-.1921688E-5,-.315E-5,0
STARLINK-30160,2023-105M,2026-06-07T14:32:09.627936,15.27566289,.0000633,43.0029,118.8370,246.5113,113.5672,0,U,57441,999,15909,-.43411796E-4,-.1456E-4,0
STARLINK-30146,2023-105N,2026-06-07T03:51:07.630272,15.27581495,.0001496,43.0023,114.7015,272.7039,87.3641,0,U,57442,999,15932,.37554E-4,.771E-5,0
STARLINK-30197,2023-105P,2026-06-08T13:53:02.165856,15.27554334,.0004726,42.9849,106.4226,99.1707,260.9679,0,U,57443,999,15948,-.10339E-4,-.548E-5,0
STARLINK-30181,2023-105Q,2026-06-07T14:27:19.585728,15.27569471,.00007881,43.0027,115.4005,204.8042,155.2772,0,U,57444,999,15935,.1494111E-4,.149E-5,0
STARLINK-30215,2023-105R,2026-06-08T12:59:31.549632,15.27574770,.0000993,43.0067,107.0020,272.3749,87.6989,0,U,57445,999,15931,.12984E-4,.95E-6,0
STARLINK-30162,2023-105S,2026-06-08T12:31:51.136896,15.27573302,.0000866,43.0044,95.8232,274.3767,85.6985,0,U,57446,999,15960,.11238E-5,-.231E-5,0
STARLINK-30178,2023-105T,2026-06-08T12:53:58.517376,15.27575718,.000107,43.0055,106.9753,271.3164,88.7565,0,U,57447,999,15947,.21758E-4,.337E-5,0
STARLINK-30196,2023-105U,2026-06-08T13:48:33.558624,15.27583412,.0000433,43.0057,109.8065,274.2076,85.8726,0,U,57448,999,15928,.37691E-4,.776E-5,0
STARLINK-30225,2023-105V,2026-06-08T13:54:05.942880,15.27579582,.0001964,43.0052,109.8297,267.4455,92.6172,0,U,57449,999,15950,-.31377E-5,-.349E-5,0
STARLINK-30217,2023-105W,2026-06-08T12:35:33.483840,15.27583312,.0000685,42.9989,95.8870,272.2921,87.7853,0,U,57450,999,15960,.64912E-5,-.83E-6,0
STARLINK-30216,2023-105X,2026-06-08T13:19:40.331424,15.27574619,.0000646,43.0031,106.2630,271.2368,88.8410,0,U,57451,999,15932,.22427E-4,.355E-5,0
STARLINK-30165,2023-107A,2026-06-08T18:21:47.248416,15.27574966,.0002025,42.9934,181.9560,265.8093,94.2527,0,U,57457,999,15906,.29512E-5,-.181E-5,0
STARLINK-30140,2023-107B,2026-06-07T08:50:36.996000,15.27468412,.00003614,42.9997,192.9414,132.2126,227.8756,0,U,57458,999,15882,-.52628912E-3,-.14666E-3,0
STARLINK-30077,2023-107D,2026-06-08T18:54:52.819776,15.27577757,.0001495,43.0039,181.2748,277.8297,82.2385,0,U,57460,999,15908,.18435E-4,.245E-5,0
STARLINK-30229,2023-107E,2026-06-08T19:04:46.574400,15.27575330,.00012,43.0022,188.9972,273.0463,87.0251,0,U,57461,999,15899,.33227E-4,.652E-5,0
STARLINK-30088,2023-107F,2026-06-08T18:29:12.450336,15.27573621,.0001207,43.0018,181.9919,282.0409,78.0307,0,U,57462,999,15907,.85057E-4,.2079E-4,0
STARLINK-30091,2023-107G,2026-06-08T20:00:03.000384,15.79782759,.0001629,42.9997,175.6095,277.3044,36.1782,0,U,57463,999,589,.78172E-2,.1675647E-1,0
STARLINK-30116,2023-107J,2026-06-08T18:14:22.847424,15.27583078,.0001733,42.9949,181.9142,276.7814,83.2840,0,U,57465,999,15907,.10687E-3,.268E-4,0
STARLINK-30092,2023-107L,2026-06-08T18:19:57.395136,15.27579610,.0000726,43.0044,181.9425,265.9182,94.1586,0,U,57467,999,15907,.5275E-4,.119E-4,0
STARLINK-30039,2023-107M,2026-06-08T18:25:29.128800,15.27577738,.000143,42.9999,181.9698,263.8870,96.1819,0,U,57468,999,15907,.19833E-4,.284E-5,0
