STARLINK-30191          
1 57413U 23102K   26159.35412062  .00004517  00000+0  17367-3 0  9997
2 57413  43.0008  34.6255 0001163 274.0617  86.0101 15.27558586160836
STARLINK-30193          
1 57414U 23102L   26159.83336806  .00145284  00000+0  32858-2 0  9990
2 57414  43.0013  93.1875 0002329 261.0090 198.7873 15.41897654  5908
STARLINK-30208          
1 57415U 23102M   26159.53104516  .00000604  00000+0  31467-4 0  9992
2 57415  43.0049  95.4948 0000876 274.2653  85.8099 15.27576183160082
STARLINK-30224          
1 57416U 23102N   26159.53875823 -.00000227  00000+0  12566-5 0  9991
2 57416  43.0031  95.5463 0000713 243.4585 116.6193 15.27572254160138
STARLINK-30043          
1 57417U 23102P   26159.54003859 -.00000266  00000+0 -14159-6 0  9990
2 57417  43.0072  95.5571 0001845 279.8916  80.1727 15.27574106160138
STARLINK-30188          
1 57432U 23105C   26159.14724203  .00000915  00000+0  42766-4 0  9991
2 57432  43.0020 112.6249 0001560 268.4864  91.5809 15.27577515159346
STARLINK-30105          
1 57433U 23105D   26158.51854665  .00000011  00000+0  99460-5 0  9999
2 57433  43.0015 243.5290 0001539 280.5950  79.4728 15.27575845162060
STARLINK-30102          
1 57434U 23105E   26158.15407425  .00000141  00000+0  14639-4 0  9996
2 57434  43.0038 114.6560 0001445 269.6562  90.4124 15.27578545159213
STARLINK-30158          
1 57438U 23105J   26159.13745435 -.00000315  00000+0 -19217-5 0  9998
2 57438  43.0018 109.1349 0001360 257.5713 102.4987 15.27572362159413
STARLINK-30160          
1 57441U 23105M   26158.60566699 -.00001456  00000+0 -43412-4 0  9996
2 57441  43.0029 118.8370 0000633 246.5113 113.5672 15.27566289159093
STARLINK-30146          
1 57442U 23105N   26158.16050498  .00000771  00000+0  37554-4 0  9990
2 57442  43.0023 114.7015 0001496 272.7039  87.3641 15.27581495159321
STARLINK-30197          
1 57443U 23105P   26159.57849729 -.00000548  00000+0 -10339-4 0  9996
2 57443  42.9849 106.4226 0004726  99.1707 260.9679 15.27554334159489
STARLINK-30181          
1 57444U 23105Q   26158.60231002  .00000149  00000+0  14941-4 0  9997
2 57444  43.0027 115.4005 0000788 204.8042 155.2772 15.27569471159350
STARLINK-30215          
1 57445U 23105R   26159.54133739  .00000095  00000+0  12984-4 0  9995
2 57445  43.0067 107.0020 0000992 272.3749  87.6989 15.27574770159312
STARLINK-30162          
1 57446U 23105S   26159.52211965 -.00000231  00000+0  11238-5 0  9997
2 57446  43.0044  95.8232 0000865 274.3767  85.6985 15.27573302159604
STARLINK-30178          
1 57447U 23105T   26159.53748284  .00000337  00000+0  21758-4 0  9991
2 57447  43.0055 106.9753 0001069 271.3164  88.7565 15.27575718159470
STARLINK-30196          
1 57448U 23105U   26159.57538841  .00000776  00000+0  37691-4 0  9992
2 57448  43.0057 109.8065 0000433 274.2076  85.8726 15.27583412159285
STARLINK-30225          
1 57449U 23105V   26159.57923545 -.00000349  00000+0 -31377-5 0  9996
2 57449  43.0052 109.8297 0001964 267.4455  92.6172 15.27579582159502
STARLINK-30217          
1 57450U 23105W   26159.52469311 -.00000083  00000+0  64912-5 0  9994
2 57450  42.9989  95.8870 0000684 272.2921  87.7853 15.27583312159600
STARLINK-30216          
1 57451U 23105X   26159.55532791  .00000355  00000+0  22427-4 0  9996
2 57451  43.0031 106.2630 0000645 271.2368  88.8410 15.27574619159323
STARLINK-30165          
1 57457U 23107A   26159.76513019 -.00000181  00000+0  29512-5 0  9990
2 57457  42.9934 181.9560 0002025 265.8093  94.2527 15.27574966159065
STARLINK-30140          
1 57458U 23107B   26158.36848375 -.00014666  00000+0 -52629-3 0  9999
2 57458  42.9997 192.9414 0000361 132.2126 227.8756 15.27468412158829
STARLINK-30077          
1 57460U 23107D   26159.78811134  .00000245  00000+0  18435-4 0  9996
2 57460  43.0039 181.2748 0001495 277.8297  82.2385 15.27577757159089
STARLINK-30229          
1 57461U 23107E   26159.79498350  .00000652  00000+0  33227-4 0  9997
2 57461  43.0022 188.9972 0001200 273.0463  87.0251 15.27575330158991
STARLINK-30088          
1 57462U 23107F   26159.77028299  .00002079  00000+0  85057-4 0  9990
2 57462  43.0018 181.9919 0001207 282.0409  78.0307 15.27573621159071
STARLINK-30091          
1 57463U 23107G   26159.83336806  .01675647  00000+0  78172-2 0  9990
2 57463  42.9997 175.6095 0001629 277.3044  36.1782 15.79782759  5894
STARLINK-30116          
1 57465U 23107J   26159.75998666  .00002680  00000+0  10687-3 0  9999
2 57465  42.9949 181.9142 0001733 276.7814  83.2840 15.27583078159074
STARLINK-30092          
1 57467U 23107L   26159.76385874  .00001190  00000+0  52750-4 0  9996
2 57467  43.0044 181.9425 0000726 265.9182  94.1586 15.27579610159072
STARLINK-30039          
1 57468U 23107M   26159.76769825  .00000284  00000+0  19833-4 0  9997
2 57468  42.9999 181.9698 0001430 263.8870  96.1819 15.27577738159076
